ONEWEB-0208             
1 48243U 21031AK  25059.63121120 -.00000026  00000+0 -10452-3 0  9999
2 48243  87.9044  23.8558 0001931  77.6669 282.4676 13.14505425186090
ONEWEB-0200             
1 48244U 21031AL  25059.59475626  .00000134  00000+0  32824-3 0  9993
2 48244  87.9043  23.8569 0001988  76.6346 283.5006 13.14502825186017
ONEWEB-0217             
1 48245U 21031AM  25059.83896775 -.00000124  00000+0 -36949-3 0  9996
2 48245  87.9045  23.7927 0002101  75.0293 285.1069 13.14503516185990
ONEWEB-0211             
1 48767U 21045A   25060.16767791  .00000077  00000+0  16904-3 0  9997
2 48767  87.9133 353.3832 0002232  79.4897 280.6485 13.16069320183359
ONEWEB-0223             
1 48768U 21045B   25060.19273909  .00000201  00000+0  49886-3 0  9998
2 48768  87.9139 353.3948 0002381  80.7885 279.3514 13.15548652183358
ONEWEB-0230             
1 48769U 21045C   25059.55576498  .00000106  00000+0  24819-3 0  9999
2 48769  87.9118 353.5828 0001844  85.3291 274.8050 13.15549135182395
ONEWEB-0237             
1 48770U 21045D   25060.22918785 -.00000021  00000+0 -89889-4 0  9993
2 48770  87.9144 353.4016 0002211  82.8524 277.2857 13.15549603183331
ONEWEB-0235             
1 48771U 21045E   25059.51932018  .00000015  00000+0  49673-5 0  9998
2 48771  87.9134 353.5317 0002419  86.1469 273.9938 13.15548102182101
ONEWEB-0242             
1 48772U 21045F   25059.51298164  .00000113  00000+0  26509-3 0  9996
2 48772  87.9131 353.5196 0002012  84.8940 275.2420 13.15548831182146
ONEWEB-0241             
1 48773U 21045G   25059.57636856  .00000168  00000+0  41222-3 0  9996
2 48773  87.9137 353.5764 0002214  75.1204 285.0171 13.15548684182063
ONEWEB-0243             
1 48774U 21045H   25060.21651417 -.00000042  00000+0 -14540-3 0  9996
2 48774  87.9148 353.4117 0002299  86.2632 273.8761 13.15549241183306
ONEWEB-0222             
1 48775U 21045J   25059.51536007  .00000141  00000+0  34038-3 0  9997
2 48775  87.9131 353.5271 0002029  77.2105 282.9252 13.15549237182127
ONEWEB-0244             
1 48776U 21045K   25059.54148892 -.00000037  00000+0 -13285-3 0  9999
2 48776  87.9131 353.5006 0001953  85.2169 274.9185 13.15548684182691
ONEWEB-0247             
1 48777U 21045L   25060.22283808 -.00000053  00000+0 -17609-3 0  9996
2 48777  87.9140 353.4264 0002821  88.7775 271.3678 13.15549270183357
ONEWEB-0245             
1 48778U 21045M   25060.21809840  .00000118  00000+0  27973-3 0  9991
2 48778  87.9135 353.4002 0002056  73.6185 286.5171 13.15548611183321
ONEWEB-0229             
1 48779U 21045N   25060.21334228  .00000012  00000+0 -11001-5 0  9996
2 48779  87.9138 353.3982 0001994  82.9646 277.1711 13.15549248183352
ONEWEB-0228             
1 48780U 21045P   25059.79032629  .00016011  00000+0  42481-1 0  9996
2 48780  87.9128 353.4601 0001974  82.0459 278.0895 13.15455619182083
ONEWEB-0232             
1 48781U 21045Q   25060.22125481 -.00000064  00000+0 -20308-3 0  9995
2 48781  87.9128 353.3756 0001882  80.1549 279.9794 13.15551310183580
ONEWEB-0231             
1 48782U 21045R   25059.74274024  .00000008  00000+0 -13360-4 0  9997
2 48782  87.9119 353.5321 0002086  82.3386 277.7981 13.15549152182091
ONEWEB-0234             
1 48783U 21045S   25060.21888685 -.00000030  00000+0 -11330-3 0  9996
2 48783  87.9137 353.3845 0001760  39.7409 320.3850 13.15549311183426
ONEWEB-0238             
1 48784U 21045T   25060.17294043  .00000089  00000+0  20127-3 0  9997
2 48784  87.9131 353.4103 0001782  75.2605 284.8723 13.15547236183311
ONEWEB-0240             
1 48785U 21045U   25059.57397419  .00000166  00000+0  40804-3 0  9991
2 48785  87.9131 353.4950 0002220  74.9525 285.1851 13.15552715182130
ONEWEB-0246             
1 48786U 21045V   25060.17689913  .00000169  00000+0  41622-3 0  9995
2 48786  87.9132 353.3839 0001923  84.6208 275.5142 13.15548695183209
ONEWEB-0210             
1 48787U 21045W   25060.22760511 -.00000001  00000+0 -37225-4 0  9998
2 48787  87.9132 353.3755 0002439  93.5133 266.6276 13.15549820183262
ONEWEB-0214             
1 48788U 21045X   25059.78076710  .00000053  00000+0  10755-3 0  9992
2 48788  87.9133 353.4529 0002114  93.9514 266.1858 13.15549165182049
ONEWEB-0221             
1 48789U 21045Y   25059.55891500  .00000163  00000+0  39884-3 0  9996
2 48789  87.9134 353.5218 0002083  79.4855 280.6510 13.15545940182109
ONEWEB-0213             
1 48790U 21045Z   25059.54784399  .00000012  00000+0 -11980-5 0  9997
2 48790  87.9132 353.5332 0002119  83.4703 276.6669 13.15548024182165
ONEWEB-0212             
1 48791U 21045AA  25059.52486688 -.00000065  00000+0 -20557-3 0  9993
2 48791  87.9136 353.5256 0001851  77.4793 282.6544 13.15548059182155
ONEWEB-0227             
1 48792U 21045AB  25059.52407397  .00000030  00000+0  46521-4 0  9994
2 48792  87.9136 353.5386 0002000  78.2341 281.9013 13.15549356182104
ONEWEB-0226             
1 48793U 21045AC  25059.51772123  .00000137  00000+0  32932-3 0  9994
2 48793  87.9136 353.5447 0002175  86.9301 273.2078 13.15546432182071
ONEWEB-0224             
1 48794U 21045AD  25060.16581034 -.00000098  00000+0 -29503-3 0  9995
2 48794  87.9142 353.4481 0002571  60.0335 300.1051 13.15546622183204
ONEWEB-0233             
1 48795U 21045AE  25059.79020133 -.00015663  00000+0 -41653-1 0  9993
2 48795  87.9131 353.5327 0002143  78.2631 281.8739 13.15644652182050
ONEWEB-0190             
1 48796U 21045AF  25059.54940886 -.00000399  00000+0 -10930-2 0  9998
2 48796  87.9137 353.5432 0002719  85.2072 274.9368 13.15547486182092
ONEWEB-0236             
1 48797U 21045AG  25059.56683516 -.00000224  00000+0 -62796-3 0  9990
2 48797  87.9139 353.5434 0001955  77.4311 282.7038 13.15549125181987
ONEWEB-0248             
1 48798U 21045AH  25060.18799379  .00000209  00000+0  52036-3 0  9993
2 48798  87.9133 353.3885 0002506  72.7117 287.4287 13.15547765183343
ONEWEB-0225             
1 48799U 21045AJ  25059.52565138 -.00000003  00000+0 -41934-4 0  9994
2 48799  87.9137 353.5435 0002218  80.1298 280.0082 13.15551282182142
ONEWEB-0215             
1 48800U 21045AK  25059.79978328  .00000293  00000+0  74344-3 0  9994
2 48800  87.9129 353.4492 0002606  77.4571 282.6851 13.15549432182058
ONEWEB-0216             
1 48801U 21045AL  25059.35294576  .00000121  00000+0  28676-3 0  9990
2 48801  87.9132 353.5817 0001829  86.8352 273.2988 13.15549867182006
ONEWEB-0239             
1 48802U 21045AM  25059.73798612  .00000172  00000+0  42379-3 0  9995
2 48802  87.9142 353.5040 0002682  72.1712 287.9710 13.15549825182090
ONEWEB-0249             
1 48967U 21060A   25059.74304125  .00000036  00000+0  59762-4 0  9991
2 48967  87.9123 323.1438 0001715  73.7617 286.3703 13.16595176177317
ONEWEB-0250             
1 48968U 21060B   25060.18956040  .00000139  00000+0  28787-3 0  9997
2 48968  87.9108 322.3586 0002727  63.1420 296.9995 13.25703494178837
ONEWEB-0252             
1 48970U 21060D   25059.24272685  .00000182  00000+0  44259-3 0  9991
2 48970  87.9116 323.2372 0001627  90.9373 269.1944 13.16593843177295
ONEWEB-0253             
1 48971U 21060E   25059.45963608  .00000010  00000+0 -86709-5 0  9996
2 48971  87.9114 323.2008 0001986  80.5791 279.5564 13.16593646177257
ONEWEB-0254             
1 48972U 21060F   25060.22909268  .00000054  00000+0  10763-3 0  9998
2 48972  87.9114 323.0301 0002214  74.5011 285.6365 13.16597269178630
ONEWEB-0255             
1 48973U 21060G   25060.19110716  .00000143  00000+0  34057-3 0  9998
2 48973  87.9113 323.0717 0002032  76.4948 283.6409 13.16595393178711
ONEWEB-0256             
1 48974U 21060H   25060.21722378  .00000048  00000+0  91032-4 0  9996
2 48974  87.9121 323.0774 0001647  83.0745 277.0574 13.16596617178680
ONEWEB-0257             
1 48975U 21060J   25059.26172997  .00000162  00000+0  39073-3 0  9999
2 48975  87.9116 323.2312 0001908  82.0413 278.0935 13.16596256177226
ONEWEB-0258             
1 48976U 21060K   25059.26331222  .00000150  00000+0  35845-3 0  9998
2 48976  87.9115 323.2585 0001738  75.6819 284.4505 13.16594837177235
ONEWEB-0259             
1 48977U 21060L   25060.16893829  .00000163  00000+0  39388-3 0  9996
2 48977  87.9112 323.0629 0001941  73.9557 286.1788 13.16594849178670
ONEWEB-0260             
1 48978U 21060M   25060.23622392 -.00000592  00000+0 -15828-2 0  9990
2 48978  87.9112 323.0792 0001720  97.0314 263.1012 13.16589907178657
ONEWEB-0261             
1 48979U 21060N   25059.44617784  .00000016  00000+0  94296-5 0  9999
2 48979  87.9124 323.2350 0002174  84.9136 275.2243 13.16595995177321
ONEWEB-0262             
1 48980U 21060P   25060.18635522  .00000177  00000+0  42937-3 0  9995
2 48980  87.9113 323.0464 0001924  70.7637 289.3702 13.16596175178683
ONEWEB-0263             
1 48981U 21060Q   25060.21801396 -.00000639  00000+0 -17045-2 0  9990
2 48981  87.9125 323.0635 0002114  79.2794 280.8574 13.16600466178656
ONEWEB-0264             
1 48982U 21060R   25059.41926608  .00000118  00000+0  27489-3 0  9999
2 48982  87.9117 323.2322 0001800  79.7304 280.4030 13.16595118177251
ONEWEB-0266             
1 48984U 21060T   25059.44062885  .00000029  00000+0  42570-4 0  9992
2 48984  87.9117 323.1989 0001714  72.2679 287.8639 13.16595643177246
ONEWEB-0267             
1 48985U 21060U   25059.45171712  .00000050  00000+0  98332-4 0  9995
2 48985  87.9115 323.1986 0001939  82.9036 277.2316 13.16595519178547
ONEWEB-0268             
1 48986U 21060V   25059.42004395  .00000091  00000+0  20485-3 0  9993
2 48986  87.9117 323.2119 0001722  83.7644 276.3683 13.16595330177517
ONEWEB-0269             
1 48987U 21060W   25059.24906238  .00000177  00000+0  42960-3 0  9998
2 48987  87.9116 323.2789 0001697  80.7199 279.4123 13.16594067177264
ONEWEB-0270             
1 48988U 21060X   25059.41845361 -.00000246  00000+0 -67758-3 0  9998
2 48988  87.9115 323.2171 0002167  78.4607 281.6767 13.16594559177322
